NORAD_CAT_ID,OBJECT_NAME,OBJECT_TYPE,EPOCH,MEAN_MOTION,ECCENTRICITY,INCLINATION,RA_OF_ASC_NODE,ARG_OF_PERICENTER,MEAN_ANOMALY,BSTAR,MEAN_MOTION_DOT,MEAN_MOTION_DDOT,TLE_LINE0,TLE_LINE1,TLE_LINE2,SEMIMAJOR_AXIS,PERIOD,APOGEE,PERIGEE,DECAYED
52599.0,STARLINK-4024,PAYLOAD,2024-08-04 16:42:41,15.08848391,0.0001265,53.2172,11.8974,99.8202,260.2933,0.0012826,0.00020188,0.0,0 STARLINK-4024,1 52599U 22052B   24217.69631282  .00020188  00000-0  12826-2 0  9994,2 52599  53.2172  11.8974 0001265  99.8202 260.2933 15.08848391123363,6917.855,95.437,540.595,538.845,0.0
52599.0,STARLINK-4024,PAYLOAD,2024-08-05 13:22:42,15.08819137,0.0001479,53.2174,8.0315,77.3493,282.7664,0.00062525,9.671e-05,0.0,0 STARLINK-4024,1 52599U 22052B   24218.55743700  .00009671  00000-0  62525-3 0  9995,2 52599  53.2174   8.0315 0001479  77.3493 282.7664 15.08819137123492,6917.944,95.439,540.832,538.786,0.0
52599.0,STARLINK-4024,PAYLOAD,2024-08-05 18:08:52,15.08823767,0.0001578,53.2182,7.1393,79.9463,280.1707,0.0014166,0.00022319,0.0,0 STARLINK-4024,1 52599U 22052B   24218.75615945  .00022319  00000-0  14166-2 0  9997,2 52599  53.2182   7.1393 0001578  79.9463 280.1707 15.08823767123957,6917.93,95.439,540.887,538.703,0.0
52599.0,STARLINK-4024,PAYLOAD,2024-08-06 13:13:30,15.0883787,0.0001587,53.2188,3.5689,83.9227,276.1946,0.00074624,0.00011608,0.0,0 STARLINK-4024,1 52599U 22052B   24219.55104437  .00011608  00000-0  74624-3 0  9990,2 52599  53.2188   3.5689 0001587  83.9227 276.1946 15.08837870124078,6917.887,95.438,540.85,538.654,0.0
52599.0,STARLINK-4024,PAYLOAD,2024-08-06 19:35:02,15.08842291,0.0001499,53.2191,2.3798,81.9415,278.1747,0.00068929,0.000107,0.0,0 STARLINK-4024,1 52599U 22052B   24219.81600455  .00010700  00000-0  68929-3 0  9993,2 52599  53.2191   2.3798 0001499  81.9415 278.1747 15.08842291123689,6917.873,95.437,540.775,538.701,0.0
52599.0,STARLINK-4024,PAYLOAD,2024-08-07 13:04:17,15.08845639,0.0001284,53.218,359.1089,75.7639,284.3495,0.00041562,6.334e-05,0.0,0 STARLINK-4024,1 52599U 22052B   24220.54464289  .00006334  00000-0  41562-3 0  9990,2 52599  53.2180 359.1089 0001284  75.7639 284.3495 15.08845639124223,6917.863,95.437,540.616,538.84,0.0
52599.0,STARLINK-4024,PAYLOAD,2024-08-07 16:15:03,15.08850561,0.0001405,53.2183,358.5129,102.4507,257.6642,0.00041704,6.357e-05,0.0,0 STARLINK-4024,1 52599U 22052B   24220.67712006  .00006357  00000-0  41704-3 0  9990,2 52599  53.2183 358.5129 0001405 102.4507 257.6642 15.08850561124240,6917.848,95.437,540.685,538.741,0.0
52599.0,STARLINK-4024,PAYLOAD,2024-08-08 12:55:03,15.08848706,0.000101,53.2183,354.6476,111.873,248.237,0.00019286,2.784e-05,0.0,0 STARLINK-4024,1 52599U 22052B   24221.53823735  .00002784  00000-0  19286-3 0  9998,2 52599  53.2183 354.6476 0001010 111.8730 248.2370 15.08848706124372,6917.854,95.437,540.417,539.02,0.0
52599.0,STARLINK-4024,PAYLOAD,2024-08-08 16:05:50,15.08843683,0.0001532,53.218,354.0539,99.1386,260.9779,6.6492e-05,7.7e-06,0.0,0 STARLINK-4024,1 52599U 22052B   24221.67071913  .00000770  00000-0  66492-4 0  9991,2 52599  53.2180 354.0539 0001532  99.1386 260.9779 15.08843683123964,6917.869,95.437,540.794,538.674,0.0
52599.0,STARLINK-4024,PAYLOAD,2024-08-09 14:21:14,15.08843098,0.0001436,53.2163,349.8913,86.2374,273.8782,0.00025058,3.703e-05,0.0,0 STARLINK-4024,1 52599U 22052B   24222.59807874  .00003703  00000-0  25058-3 0  9997,2 52599  53.2163 349.8913 0001436  86.2374 273.8782 15.08843098124531,6917.871,95.437,540.729,538.743,0.0
52599.0,STARLINK-4024,PAYLOAD,2024-08-09 15:56:37,15.08846638,0.0001533,53.2176,349.5957,73.7563,286.3598,0.000313,4.698e-05,0.0,0 STARLINK-4024,1 52599U 22052B   24222.66431878  .00004698  00000-0  31300-3 0  9993,2 52599  53.2176 349.5957 0001533  73.7563 286.3598 15.08846638124547,6917.86,95.437,540.786,538.665,0.0
52599.0,STARLINK-4024,PAYLOAD,2024-08-10 12:36:38,15.08836788,0.0001484,53.2176,345.7311,71.8375,288.2778,4.2262e-06,-2.21e-06,0.0,0 STARLINK-4024,1 52599U 22052B   24223.52544099 -.00000221  00000-0  42262-5 0  9999,2 52599  53.2176 345.7311 0001484  71.8375 288.2778 15.08836788124247,6917.89,95.438,540.782,538.729,0.0
52599.0,STARLINK-4024,PAYLOAD,2024-08-10 14:12:01,15.08841922,0.0001432,53.2165,345.4306,102.1116,258.0037,0.00013586,1.875e-05,0.0,0 STARLINK-4024,1 52599U 22052B   24223.59167867  .00001875  00000-0  13586-3 0  9990,2 52599  53.2165 345.4306 0001432 102.1116 258.0037 15.08841922124687,6917.875,95.437,540.73,538.749,0.0
52599.0,STARLINK-4024,PAYLOAD,2024-08-10 15:47:24,15.0884977,0.0001377,53.2179,345.1343,96.4652,263.6496,0.00030251,4.531e-05,0.0,0 STARLINK-4024,1 52599U 22052B   24223.65791678  .00004531  00000-0  30251-3 0  9990,2 52599  53.2179 345.1343 0001377  96.4652 263.6496 15.08849770124262,6917.851,95.437,540.668,538.763,0.0
52599.0,STARLINK-4024,PAYLOAD,2024-08-11 14:02:48,15.08840111,0.0002414,53.2165,340.9784,81.6371,278.4894,4.4133e-05,4.14e-06,0.0,0 STARLINK-4024,1 52599U 22052B   24224.58528393  .00000414  00000-0  44133-4 0  9996,2 52599  53.2165 340.9784 0002414  81.6371 278.4894 15.08840111124408,6917.88,95.438,541.415,538.075,0.0
52599.0,STARLINK-4024,PAYLOAD,2024-08-11 17:13:34,15.0883598,0.0002067,53.216,340.383,83.1209,277.0019,-7.0393e-06,-4e-06,0.0,0 STARLINK-4024,1 52599U 22052B   24224.71776510 -.00000400  00000-0 -70393-5 0  9992,2 52599  53.2160 340.3830 0002067  83.1209 277.0019 15.08835980124851,6917.893,95.438,541.188,538.328,0.0
52599.0,STARLINK-4024,PAYLOAD,2024-08-12 01:10:28,15.08877114,4.68e-05,53.2176,338.8893,36.7597,323.3427,0.00075323,0.00011732,0.0,0 STARLINK-4024,1 52599U 22052B   24225.04894058  .00011732  00000-0  75323-3 0  9991,2 52599  53.2176 338.8893 0000468  36.7597 323.3427 15.08877114124477,6917.767,95.435,539.956,539.308,0.0
52599.0,STARLINK-4024,PAYLOAD,2024-08-12 13:53:34,15.08851324,8.54e-05,53.2182,336.5109,88.5298,271.5792,0.00029298,4.38e-05,0.0,0 STARLINK-4024,1 52599U 22052B   24225.57887518  .00004380  00000-0  29298-3 0  9993,2 52599  53.2182 336.5109 0000854  88.5298 271.5792 15.08851324124554,6917.846,95.437,540.302,539.12,0.0
52599.0,STARLINK-4024,PAYLOAD,2024-08-12 18:39:43,15.08890182,0.0001028,53.218,335.6183,87.9794,272.1316,0.0012423,0.00019566,0.0,0 STARLINK-4024,1 52599U 22052B   24225.77758128  .00019566  00000-0  12423-2 0  9992,2 52599  53.2180 335.6183 0001028  87.9794 272.1316 15.08890182124589,6917.727,95.434,540.303,538.881,0.0
52599.0,STARLINK-4024,PAYLOAD,2024-08-13 01:01:15,15.08885699,0.0001463,53.218,334.4326,63.2113,296.9029,0.0010099,0.00015841,0.0,0 STARLINK-4024,1 52599U 22052B   24226.04253828  .00015841  00000-0  10099-2 0  9999,2 52599  53.2180 334.4326 0001463  63.2113 296.9029 15.08885699124627,6917.741,95.435,540.618,538.594,0.0
52599.0,STARLINK-4024,PAYLOAD,2024-08-13 13:44:22,15.08826169,0.000158,53.2114,332.0512,93.4083,266.709,-0.00039699,-6.598e-05,0.0,0 STARLINK-4024,1 52599U 22052B   24226.57247686 -.00006598  00000-0 -39699-3 0  9991,2 52599  53.2114 332.0512 0001580  93.4083 266.7090 15.08826169124705,6917.923,95.438,540.881,538.695,0.0
52599.0,STARLINK-4024,PAYLOAD,2024-08-13 18:30:31,15.08821883,0.0001483,53.2158,331.1604,95.7914,264.3247,-0.00060973,-9.974e-05,0.0,0 STARLINK-4024,1 52599U 22052B   24226.77119763 -.00009974  00000-0 -60973-3 0  9997,2 52599  53.2158 331.1604 0001483  95.7914 264.3247 15.08821883125162,6917.936,95.439,540.827,538.775,0.0
52599.0,STARLINK-4024,PAYLOAD,2024-08-14 13:35:09,15.08835541,0.0001195,53.2158,327.5926,91.2186,268.8943,0.0005092,7.824e-05,0.0,0 STARLINK-4024,1 52599U 22052B   24227.56608487  .00007824  00000-0  50920-3 0  9992,2 52599  53.2158 327.5926 0001195  91.2186 268.8943 15.08835541124853,6917.894,95.438,540.586,538.932,0.0
52599.0,STARLINK-4024,PAYLOAD,2024-08-15 10:15:10,15.08840914,0.000113,53.2162,323.7264,93.5755,266.5367,0.00013306,1.831e-05,0.0,0 STARLINK-4024,1 52599U 22052B   24228.42720660  .00001831  00000-0  13306-3 0  9995,2 52599  53.2162 323.7264 0001130  93.5755 266.5367 15.08840914125415,6917.878,95.437,540.524,538.961,0.0
52599.0,STARLINK-4024,PAYLOAD,2024-08-16 10:05:58,15.0883097,0.0001144,53.2169,319.2648,86.8968,273.2155,-0.00011322,-2.089e-05,0.0,0 STARLINK-4024,1 52599U 22052B   24229.42081020 -.00002089  00000-0 -11322-3 0  9990,2 52599  53.2169 319.2648 0001144  86.8968 273.2155 15.08830970125134,6917.908,95.438,540.564,538.982,0.0
52599.0,STARLINK-4024,PAYLOAD,2024-08-17 09:56:45,15.08843159,0.0001184,53.2171,314.8055,100.2422,259.8704,0.00016745,2.378e-05,0.0,0 STARLINK-4024,1 52599U 22052B   24230.41441009  .00002378  00000-0  16745-3 0  9991,2 52599  53.2171 314.8055 0001184 100.2422 259.8704 15.08843159125289,6917.871,95.437,540.555,538.917,0.0
52599.0,STARLINK-4024,PAYLOAD,2024-08-17 14:42:54,15.0883406,0.0001895,53.2186,313.9239,132.9905,227.1246,0.00034647,5.229e-05,0.0,0 STARLINK-4024,1 52599U 22052B   24230.61313459  .00005229  00000-0  34647-3 0  9999,2 52599  53.2186 313.9239 0001895 132.9905 227.1246 15.08834060125747,6917.899,95.438,541.074,538.453,0.0
52599.0,STARLINK-4024,PAYLOAD,2024-08-18 12:58:18,15.08846853,0.000162,53.2172,309.7522,77.6871,282.4302,0.00057039,8.803e-05,0.0,0 STARLINK-4024,1 52599U 22052B   24231.54049348  .00008803  00000-0  57039-3 0  9996,2 52599  53.2172 309.7522 0001620  77.6871 282.4302 15.08846853125451,6917.859,95.437,540.845,538.604,0.0
52599.0,STARLINK-4024,PAYLOAD,2024-08-19 11:13:42,15.08843427,0.0001525,53.2172,305.5833,87.8971,272.2196,0.00012961,1.776e-05,0.0,0 STARLINK-4024,1 52599U 22052B   24232.46784979  .00001776  00000-0  12961-3 0  9991,2 52599  53.2172 305.5833 0001525  87.8971 272.2196 15.08843427125595,6917.87,95.437,540.79,538.68,0.0
52599.0,STARLINK-4024,PAYLOAD,2024-08-20 04:42:57,15.08829938,0.0001494,53.2168,302.3142,84.9761,275.1402,-0.0001909,-3.324e-05,0.0,0 STARLINK-4024,1 52599U 22052B   24233.19649736 -.00003324  00000-0 -19090-3 0  9996,2 52599  53.2168 302.3142 0001494  84.9761 275.1402 15.08829938125704,6917.911,95.438,540.81,538.743,0.0
